STARLINK-36796          
1 67722U 26026B   26065.25002315 -.01936606  00000+0 -27309-1 0  9991
2 67722  97.2835 119.7049 0001533  58.3813  14.1615 15.59901538  4762
STARLINK-36369          
1 67723U 26026C   26065.25002315 -.01930586  00000+0 -26815-1 0  9994
2 67723  97.2838 119.7107 0001415  59.8476  25.6755 15.60286088  4761
STARLINK-36752          
1 67724U 26026D   26065.25002315 -.01986831  00000+0 -26305-1 0  9993
2 67724  97.2836 119.7204 0001793  61.9685  53.1250 15.61621486  4765
STARLINK-36754          
1 67725U 26026E   26065.25002315 -.01936822  00000+0 -28257-1 0  9997
2 67725  97.2834 119.7065 0001589  57.6099  18.1840 15.59010750  4762
STARLINK-36755          
1 67726U 26026F   26065.25002315 -.01930822  00000+0 -30892-1 0  9990
2 67726  97.2837 119.6894 0001293  61.6982 333.5464 15.56555870  4763
STARLINK-36741          
1 67727U 26026G   26065.25002315 -.01947363  00000+0 -29888-1 0  9992
2 67727  97.2836 119.7011 0001522  58.7666   4.2090 15.57692501  4767
STARLINK-36757          
1 67728U 26026H   26065.25002315 -.01992167  00000+0 -25812-1 0  9998
2 67728  97.2833 119.7353 0001973  69.4753  80.2156 15.62183394  4768
STARLINK-36751          
1 67729U 26026J   26065.25002315 -.01992612  00000+0 -25251-1 0  9991
2 67729  97.2833 119.7453 0001919  75.3953  97.3009 15.62751525  4761
STARLINK-36747          
1 67730U 26026K   26065.25002315 -.01995042  00000+0 -25383-1 0  9999
2 67730  97.2836 119.7408 0001975  70.9232  91.6674 15.62653447  4768
STARLINK-36315          
1 67731U 26026L   26065.25002315 -.01996712  00000+0 -25135-1 0  9990
2 67731  97.2836 119.7489 0001790  87.5479  93.3564 15.62929881  4765
STARLINK-36260          
1 67732U 26026M   26065.25002315 -.01997130  00000+0 -24765-1 0  9994
2 67732  97.2834 119.7541 0001961  80.2889 113.1050 15.63310308  4768
STARLINK-36746          
1 67733U 26026N   26065.25002315  .00028000  00000+0  51546-3 0  9992
2 67733  97.2846 119.5611 0001152  86.1780  12.2454 15.49144177  4765
STARLINK-36749          
1 67734U 26026P   26065.25002315 -.01930213  00000+0 -30362-1 0  9995
2 67734  97.2836 119.7149 0001634  59.6336  34.6422 15.57005803  4764
STARLINK-36691          
1 67735U 26026Q   26065.25002315 -.01995330  00000+0 -23943-1 0  9994
2 67735  97.2837 119.7724 0001716  82.3523 154.3680 15.64140367  4890
STARLINK-36317          
1 67736U 26026R   26065.25002315 -.01997085  00000+0 -24208-1 0  9999
2 67736  97.2837 119.7669 0001725  84.5570 139.0266 15.63887971  4769
STARLINK-36330          
1 67737U 26026S   26065.25002315 -.01959851  00000+0 -23401-1 0  9993
2 67737  97.2839 119.7759 0001748  79.8168 164.5693 15.64203745  4766
