[{"OBJECT_NAME":"STARLINK-36796","OBJECT_ID":"2026-026B","EPOCH":"2026-03-06T06:00:02.000160","MEAN_MOTION":15.59901538,"ECCENTRICITY":0.00015332,"INCLINATION":97.2835,"RA_OF_ASC_NODE":119.7049,"ARG_OF_PERICENTER":58.3813,"MEAN_ANOMALY":14.1615,"EPHEMERIS_TYPE":0,"CLASSIFICATION_TYPE":"U","NORAD_CAT_ID":67722,"ELEMENT_SET_NO":999,"REV_AT_EPOCH":476,"BSTAR":-0.027308984,"MEAN_MOTION_DOT":-0.01936606,"MEAN_MOTION_DDOT":0},{"OBJECT_NAME":"STARLINK-36369","OBJECT_ID":"2026-026C","EPOCH":"2026-03-06T06:00:02.000160","MEAN_MOTION":15.60286088,"ECCENTRICITY":0.00014159,"INCLINATION":97.2838,"RA_OF_ASC_NODE":119.7107,"ARG_OF_PERICENTER":59.8476,"MEAN_ANOMALY":25.6755,"EPHEMERIS_TYPE":0,"CLASSIFICATION_TYPE":"U","NORAD_CAT_ID":67723,"ELEMENT_SET_NO":999,"REV_AT_EPOCH":476,"BSTAR":-0.026815225,"MEAN_MOTION_DOT":-0.01930586,"MEAN_MOTION_DDOT":0},{"OBJECT_NAME":"STARLINK-36752","OBJECT_ID":"2026-026D","EPOCH":"2026-03-06T06:00:02.000160","MEAN_MOTION":15.61621486,"ECCENTRICITY":0.00017935,"INCLINATION":97.2836,"RA_OF_ASC_NODE":119.7204,"ARG_OF_PERICENTER":61.9685,"MEAN_ANOMALY":53.125,"EPHEMERIS_TYPE":0,"CLASSIFICATION_TYPE":"U","NORAD_CAT_ID":67724,"ELEMENT_SET_NO":999,"REV_AT_EPOCH":476,"BSTAR":-0.026305035,"MEAN_MOTION_DOT":-0.01986831,"MEAN_MOTION_DDOT":0},{"OBJECT_NAME":"STARLINK-36754","OBJECT_ID":"2026-026E","EPOCH":"2026-03-06T06:00:02.000160","MEAN_MOTION":15.5901075,"ECCENTRICITY":0.00015894,"INCLINATION":97.2834,"RA_OF_ASC_NODE":119.7065,"ARG_OF_PERICENTER":57.6099,"MEAN_ANOMALY":18.184,"EPHEMERIS_TYPE":0,"CLASSIFICATION_TYPE":"U","NORAD_CAT_ID":67725,"ELEMENT_SET_NO":999,"REV_AT_EPOCH":476,"BSTAR":-0.028257276,"MEAN_MOTION_DOT":-0.01936822,"MEAN_MOTION_DDOT":0},{"OBJECT_NAME":"STARLINK-36755","OBJECT_ID":"2026-026F","EPOCH":"2026-03-06T06:00:02.000160","MEAN_MOTION":15.5655587,"ECCENTRICITY":0.00012939,"INCLINATION":97.2837,"RA_OF_ASC_NODE":119.6894,"ARG_OF_PERICENTER":61.6982,"MEAN_ANOMALY":333.5464,"EPHEMERIS_TYPE":0,"CLASSIFICATION_TYPE":"U","NORAD_CAT_ID":67726,"ELEMENT_SET_NO":999,"REV_AT_EPOCH":476,"BSTAR":-0.030892306,"MEAN_MOTION_DOT":-0.01930822,"MEAN_MOTION_DDOT":0},{"OBJECT_NAME":"STARLINK-36741","OBJECT_ID":"2026-026G","EPOCH":"2026-03-06T06:00:02.000160","MEAN_MOTION":15.57692501,"ECCENTRICITY":0.00015224,"INCLINATION":97.2836,"RA_OF_ASC_NODE":119.7011,"ARG_OF_PERICENTER":58.7666,"MEAN_ANOMALY":4.209,"EPHEMERIS_TYPE":0,"CLASSIFICATION_TYPE":"U","NORAD_CAT_ID":67727,"ELEMENT_SET_NO":999,"REV_AT_EPOCH":476,"BSTAR":-0.029888234,"MEAN_MOTION_DOT":-0.01947363,"MEAN_MOTION_DDOT":0},{"OBJECT_NAME":"STARLINK-36757","OBJECT_ID":"2026-026H","EPOCH":"2026-03-06T06:00:02.000160","MEAN_MOTION":15.62183394,"ECCENTRICITY":0.00019736,"INCLINATION":97.2833,"RA_OF_ASC_NODE":119.7353,"ARG_OF_PERICENTER":69.4753,"MEAN_ANOMALY":80.2156,"EPHEMERIS_TYPE":0,"CLASSIFICATION_TYPE":"U","NORAD_CAT_ID":67728,"ELEMENT_SET_NO":999,"REV_AT_EPOCH":476,"BSTAR":-0.02581168,"MEAN_MOTION_DOT":-0.01992167,"MEAN_MOTION_DDOT":0},{"OBJECT_NAME":"STARLINK-36751","OBJECT_ID":"2026-026J","EPOCH":"2026-03-06T06:00:02.000160","MEAN_MOTION":15.62751525,"ECCENTRICITY":0.00019198,"INCLINATION":97.2833,"RA_OF_ASC_NODE":119.7453,"ARG_OF_PERICENTER":75.3953,"MEAN_ANOMALY":97.3009,"EPHEMERIS_TYPE":0,"CLASSIFICATION_TYPE":"U","NORAD_CAT_ID":67729,"ELEMENT_SET_NO":999,"REV_AT_EPOCH":476,"BSTAR":-0.025250792,"MEAN_MOTION_DOT":-0.01992612,"MEAN_MOTION_DDOT":0},{"OBJECT_NAME":"STARLINK-36747","OBJECT_ID":"2026-026K","EPOCH":"2026-03-06T06:00:02.000160","MEAN_MOTION":15.62653447,"ECCENTRICITY":0.00019755,"INCLINATION":97.2836,"RA_OF_ASC_NODE":119.7408,"ARG_OF_PERICENTER":70.9232,"MEAN_ANOMALY":91.6674,"EPHEMERIS_TYPE":0,"CLASSIFICATION_TYPE":"U","NORAD_CAT_ID":67730,"ELEMENT_SET_NO":999,"REV_AT_EPOCH":476,"BSTAR":-0.025382653,"MEAN_MOTION_DOT":-0.01995042,"MEAN_MOTION_DDOT":0},{"OBJECT_NAME":"STARLINK-36315","OBJECT_ID":"2026-026L","EPOCH":"2026-03-06T06:00:02.000160","MEAN_MOTION":15.62929881,"ECCENTRICITY":0.000179,"INCLINATION":97.2836,"RA_OF_ASC_NODE":119.7489,"ARG_OF_PERICENTER":87.5479,"MEAN_ANOMALY":93.3564,"EPHEMERIS_TYPE":0,"CLASSIFICATION_TYPE":"U","NORAD_CAT_ID":67731,"ELEMENT_SET_NO":999,"REV_AT_EPOCH":476,"BSTAR":-0.025134644,"MEAN_MOTION_DOT":-0.01996712,"MEAN_MOTION_DDOT":0},{"OBJECT_NAME":"STARLINK-36260","OBJECT_ID":"2026-026M","EPOCH":"2026-03-06T06:00:02.000160","MEAN_MOTION":15.63310308,"ECCENTRICITY":0.00019613,"INCLINATION":97.2834,"RA_OF_ASC_NODE":119.7541,"ARG_OF_PERICENTER":80.2889,"MEAN_ANOMALY":113.105,"EPHEMERIS_TYPE":0,"CLASSIFICATION_TYPE":"U","NORAD_CAT_ID":67732,"ELEMENT_SET_NO":999,"REV_AT_EPOCH":476,"BSTAR":-0.024764946,"MEAN_MOTION_DOT":-0.0199713,"MEAN_MOTION_DDOT":0},{"OBJECT_NAME":"STARLINK-36746","OBJECT_ID":"2026-026N","EPOCH":"2026-03-06T06:00:02.000160","MEAN_MOTION":15.49144177,"ECCENTRICITY":0.0001152,"INCLINATION":97.2846,"RA_OF_ASC_NODE":119.5611,"ARG_OF_PERICENTER":86.178,"MEAN_ANOMALY":12.2454,"EPHEMERIS_TYPE":0,"CLASSIFICATION_TYPE":"U","NORAD_CAT_ID":67733,"ELEMENT_SET_NO":999,"REV_AT_EPOCH":476,"BSTAR":0.00051546485,"MEAN_MOTION_DOT":0.00028,"MEAN_MOTION_DDOT":0},{"OBJECT_NAME":"STARLINK-36749","OBJECT_ID":"2026-026P","EPOCH":"2026-03-06T06:00:02.000160","MEAN_MOTION":15.57005803,"ECCENTRICITY":0.0001634,"INCLINATION":97.2836,"RA_OF_ASC_NODE":119.7149,"ARG_OF_PERICENTER":59.6336,"MEAN_ANOMALY":34.6422,"EPHEMERIS_TYPE":0,"CLASSIFICATION_TYPE":"U","NORAD_CAT_ID":67734,"ELEMENT_SET_NO":999,"REV_AT_EPOCH":476,"BSTAR":-0.030361744,"MEAN_MOTION_DOT":-0.01930213,"MEAN_MOTION_DDOT":0},{"OBJECT_NAME":"STARLINK-36691","OBJECT_ID":"2026-026Q","EPOCH":"2026-03-06T06:00:02.000160","MEAN_MOTION":15.64140367,"ECCENTRICITY":0.00017167,"INCLINATION":97.2837,"RA_OF_ASC_NODE":119.7724,"ARG_OF_PERICENTER":82.3523,"MEAN_ANOMALY":154.368,"EPHEMERIS_TYPE":0,"CLASSIFICATION_TYPE":"U","NORAD_CAT_ID":67735,"ELEMENT_SET_NO":999,"REV_AT_EPOCH":489,"BSTAR":-0.02394288,"MEAN_MOTION_DOT":-0.0199533,"MEAN_MOTION_DDOT":0},{"OBJECT_NAME":"STARLINK-36317","OBJECT_ID":"2026-026R","EPOCH":"2026-03-06T06:00:02.000160","MEAN_MOTION":15.63887971,"ECCENTRICITY":0.00017253,"INCLINATION":97.2837,"RA_OF_ASC_NODE":119.7669,"ARG_OF_PERICENTER":84.557,"MEAN_ANOMALY":139.0266,"EPHEMERIS_TYPE":0,"CLASSIFICATION_TYPE":"U","NORAD_CAT_ID":67736,"ELEMENT_SET_NO":999,"REV_AT_EPOCH":476,"BSTAR":-0.024207854,"MEAN_MOTION_DOT":-0.01997085,"MEAN_MOTION_DDOT":0},{"OBJECT_NAME":"STARLINK-36330","OBJECT_ID":"2026-026S","EPOCH":"2026-03-06T06:00:02.000160","MEAN_MOTION":15.64203745,"ECCENTRICITY":0.00017486,"INCLINATION":97.2839,"RA_OF_ASC_NODE":119.7759,"ARG_OF_PERICENTER":79.8168,"MEAN_ANOMALY":164.5693,"EPHEMERIS_TYPE":0,"CLASSIFICATION_TYPE":"U","NORAD_CAT_ID":67737,"ELEMENT_SET_NO":999,"REV_AT_EPOCH":476,"BSTAR":-0.023401041,"MEAN_MOTION_DOT":-0.01959851,"MEAN_MOTION_DDOT":0}]
